[
    {
        "Altitude(m)": 565691.8307817422,
        "Argument of Periapsis(deg)": -0.03013754771062987,
        "Eccentricity": 0.0,
        "Inclination(deg)": 97.0,
        "Latitude(deg)": 10.130812845910775,
        "Longitude(deg)": 45.6130474113518,
        "Mean Anomaly(deg)": 10.294791025583322,
        "RAAN(deg)": 150.0079294048247,
        "Satellite Name": "Starlink Shell 3 1926",
        "Satellite Number": 1926,
        "Semi-Major Axis(m)": 6938478.169268562,
        "Time(s)": 760
    },
    {
        "Altitude(m)": 565682.4259208079,
        "Argument of Periapsis(deg)": -0.030534094391032898,
        "Eccentricity": 0.0,
        "Inclination(deg)": 97.0,
        "Latitude(deg)": 10.755031734166636,
        "Longitude(deg)": 45.49253455344355,
        "Mean Anomaly(deg)": 10.920267223288342,
        "RAAN(deg)": 150.0080337390987,
        "Satellite Name": "Starlink Shell 3 1926",
        "Satellite Number": 1926,
        "Semi-Major Axis(m)": 6938478.169268562,
        "Time(s)": 770
    },
    {
        "Altitude(m)": 565677.1822772037,
        "Argument of Periapsis(deg)": -0.030930641071435925,
        "Eccentricity": 0.0,
        "Inclination(deg)": 97.0,
        "Latitude(deg)": 11.37921323932089,
        "Longitude(deg)": 45.371696762617276,
        "Mean Anomaly(deg)": 11.545743420993464,
        "RAAN(deg)": 150.0081380733727,
        "Satellite Name": "Starlink Shell 3 1926",
        "Satellite Number": 1926,
        "Semi-Major Axis(m)": 6938478.169268562,
        "Time(s)": 780
    },
    {
        "Altitude(m)": 565676.0736471025,
        "Argument of Periapsis(deg)": -0.031327187751838945,
        "Eccentricity": 0.0,
        "Inclination(deg)": 97.0,
        "Latitude(deg)": 12.003354303087349,
        "Longitude(deg)": 45.25051369214145,
        "Mean Anomaly(deg)": 12.17121961869846,
        "RAAN(deg)": 150.00824240764672,
        "Satellite Name": "Starlink Shell 3 1926",
        "Satellite Number": 1926,
        "Semi-Major Axis(m)": 6938478.169268562,
        "Time(s)": 790
    },
    {
        "Altitude(m)": 565679.0718899552,
        "Argument of Periapsis(deg)": -0.031723734432241975,
        "Eccentricity": 0.0,
        "Inclination(deg)": 97.0,
        "Latitude(deg)": 12.627451861017457,
        "Longitude(deg)": 45.1289641494155,
        "Mean Anomaly(deg)": 12.796695816403481,
        "RAAN(deg)": 150.00834674192072,
        "Satellite Name": "Starlink Shell 3 1926",
        "Satellite Number": 1926,
        "Semi-Major Axis(m)": 6938478.169268562,
        "Time(s)": 800
    },
    {
        "Altitude(m)": 565686.1469460813,
        "Argument of Periapsis(deg)": -0.032120281112645,
        "Eccentricity": 0.0,
        "Inclination(deg)": 97.0,
        "Latitude(deg)": 13.251502841952162,
        "Longitude(deg)": 45.00702657716784,
        "Mean Anomaly(deg)": 13.422172014108476,
        "RAAN(deg)": 150.00845107619475,
        "Satellite Name": "Starlink Shell 3 1926",
        "Satellite Number": 1926,
        "Semi-Major Axis(m)": 6938478.169268562,
        "Time(s)": 810
    },
    {
        "Altitude(m)": 565697.2668552058,
        "Argument of Periapsis(deg)": -0.03251682779304802,
        "Eccentricity": 0.0,
        "Inclination(deg)": 97.0,
        "Latitude(deg)": 13.875504167416578,
        "Longitude(deg)": 44.884679533872834,
        "Mean Anomaly(deg)": 14.04764821181347,
        "RAAN(deg)": 150.00855541046874,
        "Satellite Name": "Starlink Shell 3 1926",
        "Satellite Number": 1926,
        "Semi-Major Axis(m)": 6938478.169268562,
        "Time(s)": 820
    },
    {
        "Altitude(m)": 565712.3977759297,
        "Argument of Periapsis(deg)": -0.032913374473451044,
        "Eccentricity": 0.0,
        "Inclination(deg)": 97.0,
        "Latitude(deg)": 14.499452750950649,
        "Longitude(deg)": 44.76190066045704,
        "Mean Anomaly(deg)": 14.673124409518593,
        "RAAN(deg)": 150.00865974474274,
        "Satellite Name": "Starlink Shell 3 1926",
        "Satellite Number": 1926,
        "Semi-Major Axis(m)": 6938478.169268562,
        "Time(s)": 830
    },
    {
        "Altitude(m)": 565731.5040061623,
        "Argument of Periapsis(deg)": -0.03330992115385407,
        "Eccentricity": 0.0,
        "Inclination(deg)": 97.0,
        "Latitude(deg)": 15.123345497375416,
        "Longitude(deg)": 44.638667158979445,
        "Mean Anomaly(deg)": 15.298600607223689,
        "RAAN(deg)": 150.00876407901674,
        "Satellite Name": "Starlink Shell 3 1926",
        "Satellite Number": 1926,
        "Semi-Major Axis(m)": 6938478.169268562,
        "Time(s)": 840
    },
    {
        "Altitude(m)": 565754.5480044574,
        "Argument of Periapsis(deg)": -0.0337064678342571,
        "Eccentricity": 0.0,
        "Inclination(deg)": 97.0,
        "Latitude(deg)": 15.747179301989268,
        "Longitude(deg)": 44.51495627034717,
        "Mean Anomaly(deg)": 15.924076804928685,
        "RAAN(deg)": 150.00886841329077,
        "Satellite Name": "Starlink Shell 3 1926",
        "Satellite Number": 1926,
        "Semi-Major Axis(m)": 6938478.169268562,
        "Time(s)": 850
    },
    {
        "Altitude(m)": 565781.4904122779,
        "Argument of Periapsis(deg)": -0.03410301451466012,
        "Eccentricity": 0.0,
        "Inclination(deg)": 97.0,
        "Latitude(deg)": 16.370951049686305,
        "Longitude(deg)": 44.39074407002804,
        "Mean Anomaly(deg)": 16.549553002633704,
        "RAAN(deg)": 150.0089727475648,
        "Satellite Name": "Starlink Shell 3 1926",
        "Satellite Number": 1926,
        "Semi-Major Axis(m)": 6938478.169268562,
        "Time(s)": 860
    },
    {
        "Altitude(m)": 565812.2900771311,
        "Argument of Periapsis(deg)": -0.034499561195063144,
        "Eccentricity": 0.0,
        "Inclination(deg)": 97.0,
        "Latitude(deg)": 16.99465761399768,
        "Longitude(deg)": 44.266006784114246,
        "Mean Anomaly(deg)": 17.1750292003387,
        "RAAN(deg)": 150.0090770818388,
        "Satellite Name": "Starlink Shell 3 1926",
        "Satellite Number": 1926,
        "Semi-Major Axis(m)": 6938478.169268562,
        "Time(s)": 870
    },
    {
        "Altitude(m)": 565846.9040766343,
        "Argument of Periapsis(deg)": -0.03489610787546617,
        "Eccentricity": 0.0,
        "Inclination(deg)": 97.0,
        "Latitude(deg)": 17.618295856044213,
        "Longitude(deg)": 44.14071958274704,
        "Mean Anomaly(deg)": 17.80050539804382,
        "RAAN(deg)": 150.00918141611282,
        "Satellite Name": "Starlink Shell 3 1926",
        "Satellite Number": 1926,
        "Semi-Major Axis(m)": 6938478.169268562,
        "Time(s)": 880
    },
    {
        "Altitude(m)": 565885.2877433957,
        "Argument of Periapsis(deg)": -0.0352926545558692,
        "Eccentricity": 0.0,
        "Inclination(deg)": 97.0,
        "Latitude(deg)": 18.241862623399765,
        "Longitude(deg)": 44.01485705324941,
        "Mean Anomaly(deg)": 18.425981595748844,
        "RAAN(deg)": 150.0092857503868,
        "Satellite Name": "Starlink Shell 3 1926",
        "Satellite Number": 1926,
        "Semi-Major Axis(m)": 6938478.169268562,
        "Time(s)": 890
    },
    {
        "Altitude(m)": 565927.3946907795,
        "Argument of Periapsis(deg)": -0.035689201236272214,
        "Eccentricity": 0.0,
        "Inclination(deg)": 97.0,
        "Latitude(deg)": 18.865354748858874,
        "Longitude(deg)": 43.88839367190852,
        "Mean Anomaly(deg)": 19.051457793453938,
        "RAAN(deg)": 150.0093900846608,
        "Satellite Name": "Starlink Shell 3 1926",
        "Satellite Number": 1926,
        "Semi-Major Axis(m)": 6938478.169268562,
        "Time(s)": 900
    },
    {
        "Altitude(m)": 565973.1768395242,
        "Argument of Periapsis(deg)": -0.036085747916675244,
        "Eccentricity": 0.0,
        "Inclination(deg)": 97.0,
        "Latitude(deg)": 19.488769049097826,
        "Longitude(deg)": 43.76130276144148,
        "Mean Anomaly(deg)": 19.67693399115896,
        "RAAN(deg)": 150.00949441893482,
        "Satellite Name": "Starlink Shell 3 1926",
        "Satellite Number": 1926,
        "Semi-Major Axis(m)": 6938478.169268562,
        "Time(s)": 910
    },
    {
        "Altitude(m)": 566022.5844451467,
        "Argument of Periapsis(deg)": -0.03648229459707827,
        "Eccentricity": 0.0,
        "Inclination(deg)": 97.0,
        "Latitude(deg)": 20.11210232322962,
        "Longitude(deg)": 43.63355695979573,
        "Mean Anomaly(deg)": 20.302410188863956,
        "RAAN(deg)": 150.00959875320882,
        "Satellite Name": "Starlink Shell 3 1926",
        "Satellite Number": 1926,
        "Semi-Major Axis(m)": 6938478.169268562,
        "Time(s)": 920
    },
    {
        "Altitude(m)": 566075.5661262007,
        "Argument of Periapsis(deg)": -0.0368788412774813,
        "Eccentricity": 0.0,
        "Inclination(deg)": 97.0,
        "Latitude(deg)": 20.735351351241665,
        "Longitude(deg)": 43.50512868730381,
        "Mean Anomaly(deg)": 20.927886386569053,
        "RAAN(deg)": 150.00970308748285,
        "Satellite Name": "Starlink Shell 3 1926",
        "Satellite Number": 1926,
        "Semi-Major Axis(m)": 6938478.169268562,
        "Time(s)": 930
    },
    {
        "Altitude(m)": 566132.0688932873,
        "Argument of Periapsis(deg)": -0.037275387957884314,
        "Eccentricity": 0.0,
        "Inclination(deg)": 97.0,
        "Latitude(deg)": 21.3585128923075,
        "Longitude(deg)": 43.3759890992086,
        "Mean Anomaly(deg)": 21.553362584274073,
        "RAAN(deg)": 150.00980742175685,
        "Satellite Name": "Starlink Shell 3 1926",
        "Satellite Number": 1926,
        "Semi-Major Axis(m)": 6938478.169268562,
        "Time(s)": 940
    }
]